OBJECT_NAME,OBJECT_ID,EPOCH,MEAN_MOTION,ECCENTRICITY,INCLINATION,RA_OF_ASC_NODE,ARG_OF_PERICENTER,MEAN_ANOMALY,EPHEMERIS_TYPE,CLASSIFICATION_TYPE,NORAD_CAT_ID,ELEMENT_SET_NO,REV_AT_EPOCH,BSTAR,MEAN_MOTION_DOT,MEAN_MOTION_DDOT
IRIDIUM 135,2017-083A,2026-06-08T00:17:07.153440,14.34217584,.00020934,86.3956,325.8527,91.7082,268.4354,0,U,43070,999,44283,-.992464E-5,-.8E-7,0
IRIDIUM 138,2017-083B,2026-06-08T04:14:35.231424,14.34218066,.00024052,86.3973,325.4777,88.8473,271.2998,0,U,43071,999,44284,.8067913E-4,.246E-5,0
IRIDIUM 116,2017-083C,2026-06-08T05:09:23.132448,14.34217592,.00018594,86.3958,325.7538,94.1501,265.9907,0,U,43072,999,44288,.73199737E-4,.225E-5,0
IRIDIUM 130,2017-083D,2026-06-08T04:23:43.095552,14.34218276,.00019507,86.3967,326.0415,88.1759,271.9660,0,U,43073,999,44282,.79903533E-4,.244E-5,0
IRIDIUM 151,2017-083E,2026-06-08T03:47:11.125824,14.34218048,.00021059,86.3959,325.8351,91.6501,268.4936,0,U,43074,999,44284,.40902942E-4,.134E-5,0
IRIDIUM 134,2017-083F,2026-06-07T22:00:07.157664,14.34218074,.00020934,86.3961,325.9440,89.2680,270.8756,0,U,43075,999,44277,.13181279E-4,.57E-6,0
IRIDIUM 137,2017-083G,2026-06-08T05:00:15.107616,14.34217321,.00018936,86.3956,325.9144,103.4935,256.6472,0,U,43076,999,44288,-.5406731E-5,.5E-7,0
IRIDIUM 141,2017-083H,2026-06-07T22:09:15.181632,14.34217279,.00021046,86.3954,325.8651,90.8157,269.3280,0,U,43077,999,44284,-.11689169E-4,-.13E-6,0
IRIDIUM 153,2017-083J,2026-06-08T02:01:47.464032,14.34217634,.00023382,86.3955,294.2774,90.6406,269.5057,0,U,43078,999,44397,.2665335E-5,.27E-6,0
IRIDIUM 131,2017-083K,2026-06-07T23:31:27.138144,14.34217441,.0002107,86.3957,326.0265,92.0092,268.1345,0,U,43079,999,44278,-.15681863E-4,-.24E-6,0
IRIDIUM 144,2018-030A,2026-06-07T21:09:31.380480,14.34217794,.0002003,86.3951,294.2914,92.7323,267.4103,0,U,43249,999,42880,.35820419E-4,.12E-5,0
IRIDIUM 149,2018-030B,2026-06-08T07:21:27.437184,14.34217880,.0002256,86.3951,294.0811,92.9464,267.1990,0,U,43250,999,42888,.13158631E-4,.57E-6,0
IRIDIUM 157,2018-030C,2026-06-08T02:47:27.444768,14.34217640,.00021967,86.3952,294.2135,93.7834,266.3613,0,U,43251,999,42883,.6432359E-5,.38E-6,0
IRIDIUM 140,2018-030D,2026-06-07T22:13:27.402240,14.34217806,.00021483,86.3953,294.3057,92.1839,267.9603,0,U,43252,999,42886,.9107058E-5,.45E-6,0
IRIDIUM 145,2018-030E,2026-06-07T21:55:11.316288,14.34217720,.00018558,86.3951,294.2832,96.4966,263.6441,0,U,43253,999,42879,.22297741E-4,.82E-6,0
IRIDIUM 146,2018-030F,2026-06-08T07:30:35.385984,14.34217584,.00019828,86.3950,294.1286,95.2751,264.8671,0,U,43254,999,42886,.1367E-7,.2E-6,0
IRIDIUM 148,2018-030G,2026-06-08T01:43:31.365120,14.34217471,.00020622,86.3950,294.2723,97.0642,263.0789,0,U,43255,999,42886,-.6658314E-5,.1E-7,0
IRIDIUM 142,2018-030H,2026-06-08T07:39:43.377984,14.34217746,.00020465,86.3950,294.0581,96.2987,263.8442,0,U,43256,999,42886,.10378478E-4,.49E-6,0
IRIDIUM 150,2018-030J,2026-06-07T19:10:47.421408,14.34217855,.0002169,86.3954,294.3917,92.1700,267.9744,0,U,43257,999,42881,.13850429E-4,.59E-6,0
IRIDIUM 143,2018-030K,2026-06-08T03:05:43.394208,14.34217952,.00021063,86.3956,294.3458,93.9920,266.1517,0,U,43258,999,42879,.1811454E-4,.71E-6,0
IRIDIUM 161,2018-047C,2026-06-08T05:24:27.417312,14.43278386,.00025394,86.4483,92.2178,88.4674,271.6818,0,U,43478,999,42384,.12197135E-3,.43E-5,0
IRIDIUM 152,2018-047D,2026-06-08T05:47:22.293600,14.34217776,.00023796,86.3956,92.0723,84.4087,275.7380,0,U,43479,999,42120,.4652454E-5,.33E-6,0
IRIDIUM 147,2018-047E,2026-06-08T04:16:02.249184,14.34217670,.00021432,86.3958,92.1038,84.9150,275.2290,0,U,43480,999,42119,.22071218E-4,.82E-6,0
IRIDIUM 110,2018-047F,2026-06-08T04:25:10.316352,14.34217595,.00024663,86.3960,92.1928,86.3733,273.7745,0,U,43481,999,42118,-.2120232E-5,.14E-6,0
IRIDIUM 162,2018-047G,2026-06-08T05:15:23.303808,14.43276700,.00023439,86.4477,92.1118,83.6048,276.5420,0,U,43482,999,42383,.95844609E-4,.343E-5,0
IRIDIUM 160,2018-061A,2026-06-08T04:47:38.468256,14.34217917,.00022797,86.3967,60.5550,86.5851,273.5606,0,U,43569,999,41208,.6730346E-5,.39E-6,0
IRIDIUM 166,2018-061B,2026-06-08T05:24:10.462176,14.34217525,.00020113,86.3967,60.4947,84.7939,275.3486,0,U,43570,999,41211,-.5251936E-5,.5E-7,0
IRIDIUM 158,2018-061C,2026-06-08T04:38:30.451200,14.34217608,.00022753,86.3966,60.5183,82.6478,277.4976,0,U,43571,999,41207,.38458673E-4,.127E-5,0
IRIDIUM 165,2018-061D,2026-06-08T05:15:02.044224,14.34216234,.00020831,86.3969,60.5536,85.7701,274.3733,0,U,43572,999,41210,.67853044E-4,.21E-5,0
IRIDIUM 155,2018-061E,2026-06-08T04:20:14.457696,14.34217760,.00021819,86.3964,60.4389,83.3862,276.7582,0,U,43573,999,41206,.1682288E-5,.24E-6,0
